{
  "type": "FeatureCollection",
  "features": [
    {
      "type": "Feature",
      "properties": {
        "norad_id": 66732,
        "name": "FLOCK 4H-29",
        "group": "last-30-days",
        "lat": 31.070037481100627,
        "lon": 66.41821375606403,
        "alt_km": 513.2496961570114,
        "timestamp": "2025-12-25T09:48:51.004823+00:00",
        "meta_object_name": "FLOCK 4H-29",
        "meta_object_id": "2025-276BU",
        "meta_epoch": "2025-12-25T03:20:02.590368",
        "meta_mean_motion": 15.15055725,
        "meta_eccentricity": 0.0012864,
        "meta_inclination": 97.4377,
        "meta_ra_of_asc_node": 70.6688,
        "meta_arg_of_pericenter": 22.189,
        "meta_mean_anomaly": 337.9896,
        "meta_ephemeris_type": 0,
        "meta_classification_type": "U",
        "meta_norad_cat_id": 66732,
        "meta_element_set_no": 999,
        "meta_rev_at_epoch": 400,
        "meta_bstar": -0.095433,
        "meta_mean_motion_dot": -0.01622447,
        "meta_mean_motion_ddot": 0,
        "tle_line1": "1 66732U 25276BU  25359.13891887 -.01622447  00000+0 -95433-1 0  9997",
        "tle_line2": "2 66732  97.4377  70.6688 0012864  22.1890 337.9896 15.15055725  4006"
      },
      "geometry": {
        "type": "Point",
        "coordinates": [
          66.41821375606403,
          31.070037481100627
        ]
      }
    },
    {
      "type": "Feature",
      "properties": {
        "norad_id": 66733,
        "name": "FLOCK 4H-30",
        "group": "last-30-days",
        "lat": 29.275264110712595,
        "lon": 66.75119831267997,
        "alt_km": 514.2623263664409,
        "timestamp": "2025-12-25T09:48:51.004833+00:00",
        "meta_object_name": "FLOCK 4H-30",
        "meta_object_id": "2025-276BV",
        "meta_epoch": "2025-12-25T04:00:01.998720",
        "meta_mean_motion": 15.17262588,
        "meta_eccentricity": 0.0003142,
        "meta_inclination": 97.4431,
        "meta_ra_of_asc_node": 70.7162,
        "meta_arg_of_pericenter": 254.487,
        "meta_mean_anomaly": 252.8536,
        "meta_ephemeris_type": 0,
        "meta_classification_type": "U",
        "meta_norad_cat_id": 66733,
        "meta_element_set_no": 999,
        "meta_rev_at_epoch": 343,
        "meta_bstar": 0.0026208,
        "meta_mean_motion_dot": 0.00052447,
        "meta_mean_motion_ddot": 0,
        "tle_line1": "1 66733U 25276BV  25359.16668980  .00052447  00000+0  26208-2 0  9996",
        "tle_line2": "2 66733  97.4431  70.7162 0003142 254.4870 252.8536 15.17262588  3434"
      },
      "geometry": {
        "type": "Point",
        "coordinates": [
          66.75119831267997,
          29.275264110712595
        ]
      }
    },
    {
      "type": "Feature",
      "properties": {
        "norad_id": 66734,
        "name": "FLOCK 4H-31",
        "group": "last-30-days",
        "lat": 29.552594506759778,
        "lon": 66.68191409231841,
        "alt_km": 513.8394516526314,
        "timestamp": "2025-12-25T09:48:51.004845+00:00",
        "meta_object_name": "FLOCK 4H-31",
        "meta_object_id": "2025-276BW",
        "meta_epoch": "2025-12-25T03:21:06.361344",
        "meta_mean_motion": 15.17234118,
        "meta_eccentricity": 0.0002448,
        "meta_inclination": 97.4365,
        "meta_ra_of_asc_node": 70.6647,
        "meta_arg_of_pericenter": 263.1139,
        "meta_mean_anomaly": 96.9816,
        "meta_ephemeris_type": 0,
        "meta_classification_type": "U",
        "meta_norad_cat_id": 66734,
        "meta_element_set_no": 999,
        "meta_rev_at_epoch": 400,
        "meta_bstar": 0.00056968,
        "meta_mean_motion_dot": 0.00011275,
        "meta_mean_motion_ddot": 0,
        "tle_line1": "1 66734U 25276BW  25359.13965696  .00011275  00000+0  56968-3 0  9999",
        "tle_line2": "2 66734  97.4365  70.6647 0002448 263.1139  96.9816 15.17234118  4001"
      },
      "geometry": {
        "type": "Point",
        "coordinates": [
          66.68191409231841,
          29.552594506759778
        ]
      }
    },
    {
      "type": "Feature",
      "properties": {
        "norad_id": 66735,
        "name": "FLOCK 4H-32",
        "group": "last-30-days",
        "lat": 27.459454741648322,
        "lon": 67.05397785355257,
        "alt_km": 514.9885563969901,
        "timestamp": "2025-12-25T09:48:51.004857+00:00",
        "meta_object_name": "FLOCK 4H-32",
        "meta_object_id": "2025-276BX",
        "meta_epoch": "2025-12-25T03:21:40.095360",
        "meta_mean_motion": 15.17259045,
        "meta_eccentricity": 0.0003505,
        "meta_inclination": 97.4425,
        "meta_ra_of_asc_node": 70.6851,
        "meta_arg_of_pericenter": 246.0398,
        "meta_mean_anomaly": 114.0468,
        "meta_ephemeris_type": 0,
        "meta_classification_type": "U",
        "meta_norad_cat_id": 66735,
        "meta_element_set_no": 999,
        "meta_rev_at_epoch": 400,
        "meta_bstar": 0.0006397,
        "meta_mean_motion_dot": 0.00012681,
        "meta_mean_motion_ddot": 0,
        "tle_line1": "1 66735U 25276BX  25359.14004740  .00012681  00000+0  63970-3 0  9998",
        "tle_line2": "2 66735  97.4425  70.6851 0003505 246.0398 114.0468 15.17259045  4009"
      },
      "geometry": {
        "type": "Point",
        "coordinates": [
          67.05397785355257,
          27.459454741648322
        ]
      }
    },
    {
      "type": "Feature",
      "properties": {
        "norad_id": 66736,
        "name": "FLOCK 4H-33",
        "group": "last-30-days",
        "lat": 51.01535769549437,
        "lon": -99.7140847498984,
        "alt_km": 504.43414409080106,
        "timestamp": "2025-12-25T09:48:51.004867+00:00",
        "meta_object_name": "FLOCK 4H-33",
        "meta_object_id": "2025-276BY",
        "meta_epoch": "2025-12-25T04:30:21.256992",
        "meta_mean_motion": 15.18325657,
        "meta_eccentricity": 0.0002829,
        "meta_inclination": 97.4422,
        "meta_ra_of_asc_node": 70.7737,
        "meta_arg_of_pericenter": 152.0459,
        "meta_mean_anomaly": 208.0927,
        "meta_ephemeris_type": 0,
        "meta_classification_type": "U",
        "meta_norad_cat_id": 66736,
        "meta_element_set_no": 999,
        "meta_rev_at_epoch": 401,
        "meta_bstar": 0.00055385,
        "meta_mean_motion_dot": 0.00011309,
        "meta_mean_motion_ddot": 0,
        "tle_line1": "1 66736U 25276BY  25359.18774603  .00011309  00000+0  55385-3 0  9992",
        "tle_line2": "2 66736  97.4422  70.7737 0002829 152.0459 208.0927 15.18325657  4012"
      },
      "geometry": {
        "type": "Point",
        "coordinates": [
          -99.7140847498984,
          51.01535769549437
        ]
      }
    },
    {
      "type": "Feature",
      "properties": {
        "norad_id": 66737,
        "name": "FLOCK 4H-34",
        "group": "last-30-days",
        "lat": 61.19299393929918,
        "lon": -95.25440160006596,
        "alt_km": 505.03293774310805,
        "timestamp": "2025-12-25T09:48:51.004877+00:00",
        "meta_object_name": "FLOCK 4H-34",
        "meta_object_id": "2025-276BZ",
        "meta_epoch": "2025-12-25T02:58:10.658208",
        "meta_mean_motion": 15.18198766,
        "meta_eccentricity": 3.72e-05,
        "meta_inclination": 97.4434,
        "meta_ra_of_asc_node": 70.7116,
        "meta_arg_of_pericenter": 105.79,
        "meta_mean_anomaly": 254.3375,
        "meta_ephemeris_type": 0,
        "meta_classification_type": "U",
        "meta_norad_cat_id": 66737,
        "meta_element_set_no": 999,
        "meta_rev_at_epoch": 325,
        "meta_bstar": 0.002353,
        "meta_mean_motion_dot": 0.00048328,
        "meta_mean_motion_ddot": 0,
        "tle_line1": "1 66737U 25276BZ  25359.12373447  .00048328  00000+0  23530-2 0  9995",
        "tle_line2": "2 66737  97.4434  70.7116 0000372 105.7900 254.3375 15.18198766  3259"
      },
      "geometry": {
        "type": "Point",
        "coordinates": [
          -95.25440160006596,
          61.19299393929918
        ]
      }
    },
    {
      "type": "Feature",
      "properties": {
        "norad_id": 66738,
        "name": "FLOCK 4H-35",
        "group": "last-30-days",
        "lat": 51.68752661999853,
        "lon": -99.49815837362442,
        "alt_km": 504.55832117945283,
        "timestamp": "2025-12-25T09:48:51.004887+00:00",
        "meta_object_name": "FLOCK 4H-35",
        "meta_object_id": "2025-276CA",
        "meta_epoch": "2025-12-25T02:55:37.318944",
        "meta_mean_motion": 15.18275635,
        "meta_eccentricity": 0.0002587,
        "meta_inclination": 97.4398,
        "meta_ra_of_asc_node": 70.6998,
        "meta_arg_of_pericenter": 142.8061,
        "meta_mean_anomaly": 217.3352,
        "meta_ephemeris_type": 0,
        "meta_classification_type": "U",
        "meta_norad_cat_id": 66738,
        "meta_element_set_no": 999,
        "meta_rev_at_epoch": 329,
        "meta_bstar": 0.00048925,
        "meta_mean_motion_dot": 9.966e-05,
        "meta_mean_motion_ddot": 0,
        "tle_line1": "1 66738U 25276CA  25359.12195971  .00009966  00000+0  48925-3 0  9991",
        "tle_line2": "2 66738  97.4398  70.6998 0002587 142.8061 217.3352 15.18275635  3295"
      },
      "geometry": {
        "type": "Point",
        "coordinates": [
          -99.49815837362442,
          51.68752661999853
        ]
      }
    }
  ]
}